#dP2021 12 11  0  0  0.00000000     288   u+U IGb14 FIT  GFZ                    
## 2187 518400.00000000   300.00000000 59559 0.0000000000000                    
+  124   C01C02C03C04C05C06C07C08C09C11C12C13C14C16C19C20C21                    
+        C22C23C24C25C26C27C28C29C30C32C33C34C35C36C37C38C39                    
+        C40C41C42C43C44C45C46C59C60E01E02E03E04E05E07E08E09                    
+        E11E12E13E14E15E18E19E21E24E25E26E27E30E31E33E36G01                    
+        G02G03G04G05G06G07G08G09G10G11G12G13G14G15G16G17G18                    
+        G19G20G21G22G23G24G25G26G27G28G29G30G31G32J01J02J03                    
+        J07R01R02R03R04R05R07R08R09R11R12R13R14R15R16R17R18                    
+        R19R20R21R22R24 00 00 00 00 00 00 00 00 00 00 00 00                    
++        10 10 10 10 10  9 10  8 10  6 10 10  7 10  8  6  6                    
++         6  7  5  6  7  7  5  6  6  5  7  8  8  6  6 10 10                    
++        10  8  6  6  5  8  6 10 10  9  9  5  5  6  7  7  7                    
++         5  5  5  5  6  6  5  7  6  7  5  6  6  7  6  6  7                    
++         0  5  5  5  6  8  6  7  7  9  5  5  6  7  7  5  5                    
++         5  7  5  6  5  5  6  6  6  7  7  5  6  6  9 10  7                    
++        10  6  7  5  9  9  7  6  8  6  5  6  7  5 10  6  8                    
++        10  7  6  9  5  0  0  0  0  0  0  0  0  0  0  0  0                    
%c M  cc GPS ccc cccc cccc cccc cccc ccccc ccccc ccccc ccccc                    
%c cc cc ccc ccc cccc cccc cccc cccc ccccc ccccc ccccc ccccc                    
%f  1.2500000  1.025000000  0.00000000000  0.000000000000000                    
%f  0.0000000  0.000000000  0.00000000000  0.000000000000000                    
%i    0    0    0    0      0      0      0      0         0                    
%i    0    0    0    0      0      0      0      0         0                    
/* PCV:IGS14_2178 OL/AL:FES2004  NONE     YN CLK:CoN ORB:CoN                    
/*     GeoForschungsZentrum Potsdam                                             
/*                                                                              
/*                                                                              
*  2021 12 11 17 10  0.00000000                                                 
PC01 -34293.657677  24532.376916    294.745712   -355.572789                    
PC02   4318.701512  41920.272611   -413.738525    816.194170                    
PC03 -14815.487592  39440.496060    456.261485    345.017743                    
PC04 -39603.201218  14430.437269    619.954356    353.505664                    
PC05  21859.374422  36032.951744   -803.065118    330.290300                    
PC06  -4721.595520  24457.318660 -34036.945876    620.522956                    
PC07 -16768.364464  35526.354067  15180.459981    133.977689                    
PC08  -1306.081640  38995.751733  16190.735921    -31.257668                    
PC09   1920.892285  26069.028180 -32681.928157   -340.011075                    
PC11  26330.091126   4975.763081  -7792.677288   -339.513719                    
PC12  21395.349564  15092.617304   9727.771708   -425.826974                    
PC13   1892.431202  40600.323521  11876.320732   -181.183331                    
PC14  22781.749585  -5399.195299 -15206.099341    500.886491                    
PC16 -10975.800766  21638.495505 -34371.353486     20.370440                    
PC19 -23441.756283  13415.519275   7018.154233    923.995888                    
PC20 -19265.013305  -1887.535165  20100.498756   -794.011465                    
PC21   3264.062615  16970.608332 -21898.531968   -946.147743                    
PC22 -14196.736416  21511.671374 -10680.920827   -967.254469                    
PC23   5132.441539 -24320.651320  12676.147839   -963.068023                    
PC24  15735.223096  13842.143297  18431.715514   -952.512982                    
PC25  14450.078236  -8807.986760  22177.998505   -811.508160                    
PC26   8658.373408  26081.968079   4957.642844    809.338380                    
PC27 -13665.882569 -17661.823052 -16757.835107    643.576170                    
PC28   6505.404309 -14490.782610 -22937.857552      7.712455                    
PC29 -22854.925789   3637.062142  15592.206693    486.261603                    
PC30 -26055.573999  -9923.237462  -1415.024644    488.522417                    
PC32  -3330.813325 -17007.973420  21880.467184   -957.312770                    
PC33  23384.242260 -13495.734487  -7075.580629   -961.732863                    
PC34  26253.868001   9412.085507    516.657653   -517.017050                    
PC35  -6668.883221  14536.714094  22867.237482     41.435483                    
PC36 -14782.978720   7997.652880 -22256.488346   -829.127837                    
PC37  -7410.172840 -26592.977962  -3963.592894   -910.303695                    
PC38  -8051.277597  34263.571474  23365.973981    195.896892                    
PC39 -15412.333681  20190.179855 -33699.645105     34.323240                    
PC40 -25036.034840  31355.759840  12734.249012    225.653482                    
PC41  14400.263033 -21554.680293  10363.854429   -916.001411                    
PC42  18761.221131   2689.779918 -20448.484798   -934.303054                    
PC43  23243.012218  -3178.837906 -15100.516561   -955.072164                    
PC44  14008.564104  17283.508933  16822.357092    494.878137                    
PC45  -4891.011649  24457.084638 -12546.800991    624.243096                    
PC46 -15923.285854 -12440.149455 -19226.513685    -55.156663                    
PC59 -32267.080405  27151.338760   -616.646318      0.201832                    
PC60   7300.165521  41500.655987   1590.422974     -0.338369                    
PE01  -3871.952221 -23959.782916 -16931.498664   -535.843150                    
PE02   3969.387155  23891.949092  17034.581978    266.184032                    
PE03  10910.031954  14633.393129 -23313.922115   -505.284291                    
PE04 -26746.893918  -3461.988886  12200.169406   -918.602666                    
PE05 -11640.620274  17409.769315 -20925.383070   -227.239618                    
PE07  27118.929606 -10008.824530   6379.830633   -616.509858                    
PE08  26933.098684   3009.860726 -11921.051766   5890.552011                    
PE09 -26980.827778  10207.986489  -6617.408571   5433.456573                    
PE11 -16790.620990   4578.063506  23942.522391   4912.522334                    
PE12 -23039.580466 -14356.277058  11818.329601   4865.959642                    
PE13  17095.937947  -3993.371009 -23822.505717    424.581581                    
PE14  -2077.806662 -20106.225476 -24276.522170  -1671.078620                    
PE15  23041.417487  14402.384463 -11731.718403    775.867629                    
PE18  14688.877976  13466.387573  15733.874761  -1837.971987                    
PE19  -8165.390385 -15411.854785  23913.594682    449.622031                    
PE21   9268.167904 -28102.536116   -433.627100   -704.696713                    
PE24 -18115.116140  15116.029631 -17903.455496  -1274.274921                    
PE25  -9416.060869  28069.472137    211.005539   -556.529491                    
PE26    356.292740 -20612.717638 -21227.527711   -557.949788                    
PE27  17817.197804 -16251.341773  17158.625132   -184.555801                    
PE30  15375.761648   6442.228029  24453.859723   -101.480211                    
PE31 -15816.229365  -5031.432232 -24499.662303   -489.224125                    
PE33 -15395.198740 -24231.288885  -7203.840528   -461.553106                    
PE36  -1139.300936  19944.091345  21850.970837   -302.421447                    
PG01 -18507.471688  -8349.165576  17029.737969    486.808884                    
PG02  14706.380135  21996.488698   2194.673808   -645.316752                    
PG03 -16898.341278   2717.501578  20178.844505    -38.469127                    
PG04 -26549.797888   -708.346822   1517.990212   -199.367920                    
PG05  10135.944389  13025.216638 -20942.919499    -64.060715                    
PG06   2519.681743  22020.934799  14655.760675    140.107870                    
PG07 -12835.968623   8229.595966 -21370.978986    289.589115                    
PG08 -22674.118202  -6998.940864 -12279.162800    -47.684377                    
PG09 -23460.917844   8258.213947  -9437.142543   -360.615295                    
PG10  11323.718653 -23824.058500   1153.460030   -266.331317                    
PG11  11624.350945  23786.317874   2240.137590     13.745746                    
PG12  16291.473135    428.495912  20687.408029   -139.272188                    
PG13  16182.488380  13007.148464 -16807.386691    227.929711                    
PG14 -12601.985471  23328.736220    823.149410    -53.505166                    
PG15  23527.364655   5050.463258 -11998.190290    -99.923459                    
PG16  -6211.645898 -16097.406948 -20311.342693   -438.714206                    
PG17 -12671.834184  13084.252489  19783.340363    546.037516                    
PG18  11871.565888  -9291.968313 -21866.285351    281.239091                    
PG19  -3349.945788  14452.981102  21758.246904     90.862153                    
PG20   3907.024712  21932.310633 -14669.416063    517.691710                    
PG21 -20291.075452 -14568.242341  10524.794606    153.462546                    
PG22 -14465.631613  -6365.545512  21520.678057   -443.837500                    
PG23  16470.969129 -18195.163170 -10057.845864     23.000771                    
PG24  20384.306454  11118.172987  12974.936483    274.079306                    
PG25  17958.566936 -11783.122255  15168.753639    254.193584                    
PG26   2579.029103 -24155.864829 -10441.933871    164.000489                    
PG27 -13784.043156 -12468.392624 -19302.185248   -229.793167                    
PG28  -7963.777351  23972.653961   9091.169085    445.202450                    
PG29  25680.430231  -3362.914767  -6070.574972   -452.601988                    
PG30  -5320.410428  17813.154373 -18813.946461   -498.504077                    
PG31  -3753.326948 -22925.394406  12314.282546   -154.540009                    
PG32   7798.490614 -14949.965830  20596.120990    -33.724932                    
PJ01 -37062.473243  18586.596977  -2958.637758    100.940276                    
PJ02 -23223.345827  31651.074939 -10688.157741     -0.341988                    
PJ03 -27093.295189  22810.894451  28046.126483     -8.922467                    
PJ07 -25398.998056  33663.814451    -25.961351     -0.019469                    
PR01  -2703.529624  13574.043542 -21430.257474     89.347838                    
PR02  15801.196108   1977.570363 -19867.983633    502.944989                    
PR03  22840.364507  -9569.905040  -5948.284201     47.965606                    
PR04  17031.055594 -15415.961711  11093.839548    118.342299                    
PR05   1809.619975 -12768.158539  22006.735143     84.013549                    
PR07 -22924.075652   9909.482746   5355.794277    -39.288942                    
PR08 -16989.157814  15496.493949 -11024.495455    -62.494205                    
PR09  -9791.032269 -12914.042279 -19706.714833     28.214042                    
PR11  -5820.808139  21438.899728 -12518.709679     49.078256                    
PR12   2540.134812  24759.051684   5668.964287    285.684056                    
PR13   9280.675839  13852.925507  19289.256724    -64.694914                    
PR14  10782.384680  -6304.638871  22252.565929     71.975475                    
PR15   5903.366425 -21771.637994  11923.342817     99.666896                    
PR16  -3817.361817 -24184.655409  -6924.232741    -26.620818                    
PR17  19673.878942   3397.243031 -15888.072225    482.670602                    
PR18   6933.300737  -7964.878061 -23196.453329    100.138510                    
PR19  -8031.761009 -15154.838792 -18871.102781   -170.300434                    
PR20 -21123.140861 -14289.510279  -1135.484628    -60.996150                    
PR21 -18878.480310  -2529.097134  16956.889148   -261.415275                    
PR22  -6181.213892   8388.087177  23277.359638   -150.808457                    
PR24  21577.831945  13614.746820    476.056251     70.760641                    
EOF                                     
